start=new Date('2023-04-14T00:00:00.000Z').valueOf();
sats=[{"APOAPSIS":"547.695","REF_FRAME":"TEME","ECCENTRICITY":"0.00006450","DECAY_DATE":null,"OBJECT_ID":"2020-038B","TLE_LINE2":"2 45731  53.0539 322.5835 0000645 107.0809 253.0251 15.06388515156175","TIME_SYSTEM":"UTC","MEAN_ANOMALY":"253.0251","SEMIMAJOR_AXIS":"6925.384","REV_AT_EPOCH":"15617","GP_ID":"230010740","OBJECT_NAME":"STARLINK-1465","EPOCH":"2023-04-13T00:45:54.493344","NORAD_CAT_ID":"45731","LAUNCH_DATE":"2020-06-13","SITE":"AFETR","CLASSIFICATION_TYPE":"U","MEAN_ELEMENT_THEORY":"SGP4","BSTAR":"0.00028773000000","RA_OF_ASC_NODE":"322.5835","ELEMENT_SET_NO":"999","COUNTRY_CODE":"US","CENTER_NAME":"EARTH","FILE":"3886564","OBJECT_TYPE":"PAYLOAD","INCLINATION":"53.0539","MEAN_MOTION_DOT":"0.00004006","PERIOD":"95.593","MEAN_MOTION_DDOT":"0.0000000000000","EPHEMERIS_TYPE":"0","ARG_OF_PERICENTER":"107.0809","PERIAPSIS":"546.802","MEAN_MOTION":"15.06388515","TLE_LINE1":"1 45731U 20038B   23103.03188071  .00004006  00000-0  28773-3 0  9990","RCS_SIZE":"LARGE"},{"APOAPSIS":"547.697","REF_FRAME":"TEME","ECCENTRICITY":"0.00006720","DECAY_DATE":null,"TLE_LINE2":"2 45732  53.0540 321.7398 0000672  89.4404 270.6662 15.06394012156201","OBJECT_ID":"2020-038C","TIME_SYSTEM":"UTC","MEAN_ANOMALY":"270.6662","SEMIMAJOR_AXIS":"6925.367","REV_AT_EPOCH":"15620","GP_ID":"230009491","OBJECT_NAME":"STARLINK-1466","EPOCH":"2023-04-13T05:16:36.593472","NORAD_CAT_ID":"45732","LAUNCH_DATE":"2020-06-13","SITE":"AFETR","CLASSIFICATION_TYPE":"U","MEAN_ELEMENT_THEORY":"SGP4","BSTAR":"0.00119080000000","RA_OF_ASC_NODE":"321.7398","ELEMENT_SET_NO":"999","COUNTRY_CODE":"US","CENTER_NAME":"EARTH","FILE":"3886564","OBJECT_TYPE":"PAYLOAD","INCLINATION":"53.0540","MEAN_MOTION_DOT":"0.00017497","PERIOD":"95.593","MEAN_MOTION_DDOT":"0.0000000000000","EPHEMERIS_TYPE":"0","ARG_OF_PERICENTER":"89.4404","PERIAPSIS":"546.767","RCS_SIZE":"LARGE","TLE_LINE1":"1 45732U 20038C   23103.21986798  .00017497  00000-0  11908-2 0  9992","MEAN_MOTION":"15.06394012"},{"APOAPSIS":"507.526","REF_FRAME":"TEME","ECCENTRICITY":"0.00024110","DECAY_DATE":null,"TLE_LINE2":"2 45733  53.0557 310.0912 0002411 175.0551 185.0468 15.19992074157537","OBJECT_ID":"2020-038D","TIME_SYSTEM":"UTC","MEAN_ANOMALY":"185.0468","SEMIMAJOR_AXIS":"6884.002","GP_ID":"230027552","REV_AT_EPOCH":"15753","OBJECT_NAME":"STARLINK-1467","EPOCH":"2023-04-13T20:19:14.430720","NORAD_CAT_ID":"45733","LAUNCH_DATE":"2020-06-13","SITE":"AFETR","CLASSIFICATION_TYPE":"U","MEAN_ELEMENT_THEORY":"SGP4","BSTAR":"0.00217610000000","RA_OF_ASC_NODE":"310.0912","ELEMENT_SET_NO":"999","COUNTRY_CODE":"US","CENTER_NAME":"EARTH","FILE":"3886979","OBJECT_TYPE":"PAYLOAD","INCLINATION":"53.0557","MEAN_MOTION_DOT":"0.00047437","PERIOD":"94.737","MEAN_MOTION_DDOT":"0.0000000000000","ARG_OF_PERICENTER":"175.0551","EPHEMERIS_TYPE":"0","PERIAPSIS":"504.207","TLE_LINE1":"1 45733U 20038D   23103.84669480  .00047437  00000-0  21761-2 0  9993","RCS_SIZE":"LARGE","MEAN_MOTION":"15.19992074"},{"ECCENTRICITY":"0.00023750","REF_FRAME":"TEME","APOAPSIS":"527.605","SEMIMAJOR_AXIS":"6904.100","REV_AT_EPOCH":"15736","GP_ID":"230020500","TIME_SYSTEM":"UTC","MEAN_ANOMALY":"267.1063","OBJECT_ID":"2020-038E","TLE_LINE2":"2 45734  53.0548 316.9698 0002375  93.0200 267.1063 15.13359635157361","DECAY_DATE":null,"OBJECT_NAME":"STARLINK-1468","CLASSIFICATION_TYPE":"U","SITE":"AFETR","LAUNCH_DATE":"2020-06-13","NORAD_CAT_ID":"45734","EPOCH":"2023-04-12T23:32:15.404640","COUNTRY_CODE":"US","CENTER_NAME":"EARTH","RA_OF_ASC_NODE":"316.9698","ELEMENT_SET_NO":"999","MEAN_ELEMENT_THEORY":"SGP4","BSTAR":"0.00045197000000","PERIOD":"95.153","INCLINATION":"53.0548","MEAN_MOTION_DOT":"0.00007861","FILE":"3886696","OBJECT_TYPE":"PAYLOAD","EPHEMERIS_TYPE":"0","ARG_OF_PERICENTER":"93.0200","MEAN_MOTION_DDOT":"0.0000000000000","PERIAPSIS":"524.325","MEAN_MOTION":"15.13359635","TLE_LINE1":"1 45734U 20038E   23102.98073385  .00007861  00000-0  45197-3 0  9998","RCS_SIZE":"LARGE"},{"APOAPSIS":"547.986","REF_FRAME":"TEME","ECCENTRICITY":"0.00010090","DECAY_DATE":null,"OBJECT_ID":"2020-038F","TLE_LINE2":"2 45735  53.0558 322.5174 0001009 102.1744 257.9358 15.06376051157292","TIME_SYSTEM":"UTC","MEAN_ANOMALY":"257.9358","SEMIMAJOR_AXIS":"6925.422","GP_ID":"230021002","REV_AT_EPOCH":"15729","OBJECT_NAME":"STARLINK-1471","EPOCH":"2023-04-13T01:07:08.812128","NORAD_CAT_ID":"45735","SITE":"AFETR","LAUNCH_DATE":"2020-06-13","CLASSIFICATION_TYPE":"U","MEAN_ELEMENT_THEORY":"SGP4","BSTAR":"-0.00007888400000","RA_OF_ASC_NODE":"322.5174","ELEMENT_SET_NO":"999","COUNTRY_CODE":"US","CENTER_NAME":"EARTH","FILE":"3886696","OBJECT_TYPE":"PAYLOAD","INCLINATION":"53.0558","MEAN_MOTION_DOT":"-0.00001455","PERIOD":"95.594","MEAN_MOTION_DDOT":"0.0000000000000","EPHEMERIS_TYPE":"0","ARG_OF_PERICENTER":"102.1744","PERIAPSIS":"546.588","TLE_LINE1":"1 45735U 20038F   23103.04662977 -.00001455  00000-0 -78884-4 0  9993","RCS_SIZE":"LARGE","MEAN_MOTION":"15.06376051"},{"EPOCH":"2023-04-13T13:46:50.485152","NORAD_CAT_ID":"45736","LAUNCH_DATE":"2020-06-13","SITE":"AFETR","CLASSIFICATION_TYPE":"U","OBJECT_NAME":"STARLINK-1472","DECAY_DATE":null,"TLE_LINE2":"2 45736  53.0566 214.2788 0001933 243.3222 116.7589 15.52340039158887","OBJECT_ID":"2020-038G","TIME_SYSTEM":"UTC","MEAN_ANOMALY":"116.7589","SEMIMAJOR_AXIS":"6788.033","REV_AT_EPOCH":"15888","GP_ID":"230020501","APOAPSIS":"411.210","REF_FRAME":"TEME","ECCENTRICITY":"0.00019330","PERIAPSIS":"408.586","RCS_SIZE":"LARGE","TLE_LINE1":"1 45736U 20038G   23103.57419543  .00047070  00000-0  76264-3 0  9991","MEAN_MOTION":"15.52340039","MEAN_MOTION_DDOT":"0.0000000000000","EPHEMERIS_TYPE":"0","ARG_OF_PERICENTER":"243.3222","FILE":"3886696","OBJECT_TYPE":"PAYLOAD","INCLINATION":"53.0566","MEAN_MOTION_DOT":"0.00047070","PERIOD":"92.763","MEAN_ELEMENT_THEORY":"SGP4","BSTAR":"0.00076264000000","RA_OF_ASC_NODE":"214.2788","ELEMENT_SET_NO":"999","COUNTRY_CODE":"US","CENTER_NAME":"EARTH"},{"REV_AT_EPOCH":"15739","GP_ID":"230021022","SEMIMAJOR_AXIS":"6925.314","MEAN_ANOMALY":"256.1913","TIME_SYSTEM":"UTC","OBJECT_ID":"2020-038J","TLE_LINE2":"2 45738  53.0542 319.5873 0001076 103.9196 256.1913 15.06411370157397","DECAY_DATE":null,"ECCENTRICITY":"0.00010760","REF_FRAME":"TEME","APOAPSIS":"547.924","CLASSIFICATION_TYPE":"U","SITE":"AFETR","LAUNCH_DATE":"2020-06-13","NORAD_CAT_ID":"45738","EPOCH":"2023-04-13T16:46:37.084512","OBJECT_NAME":"STARLINK-1474","PERIOD":"95.591","MEAN_MOTION_DOT":"0.00016531","INCLINATION":"53.0542","OBJECT_TYPE":"PAYLOAD","FILE":"3886698","CENTER_NAME":"EARTH","COUNTRY_CODE":"US","ELEMENT_SET_NO":"999","RA_OF_ASC_NODE":"319.5873","BSTAR":"0.00112570000000","MEAN_ELEMENT_THEORY":"SGP4","TLE_LINE1":"1 45738U 20038J   23103.69904033  .00016531  00000-0  11257-2 0  9997","MEAN_MOTION":"15.06411370","RCS_SIZE":"LARGE","PERIAPSIS":"546.434","EPHEMERIS_TYPE":"0","ARG_OF_PERICENTER":"103.9196","MEAN_MOTION_DDOT":"0.0000000000000"},{"MEAN_MOTION_DDOT":"0.0000000000000","ARG_OF_PERICENTER":"67.0567","EPHEMERIS_TYPE":"0","PERIAPSIS":"546.685","MEAN_MOTION":"15.06425290","TLE_LINE1":"1 45739U 20038K   23103.77917859  .00022973  00000-0  15551-2 0  9995","RCS_SIZE":"LARGE","RA_OF_ASC_NODE":"279.2185","ELEMENT_SET_NO":"999","COUNTRY_CODE":"US","CENTER_NAME":"EARTH","MEAN_ELEMENT_THEORY":"SGP4","BSTAR":"0.00155510000000","INCLINATION":"53.0526","MEAN_MOTION_DOT":"0.00022973","PERIOD":"95.591","FILE":"3886706","OBJECT_TYPE":"PAYLOAD","OBJECT_NAME":"STARLINK-1475","LAUNCH_DATE":"2020-06-13","SITE":"AFETR","CLASSIFICATION_TYPE":"U","EPOCH":"2023-04-13T18:42:01.030176","NORAD_CAT_ID":"45739","REF_FRAME":"TEME","ECCENTRICITY":"0.00006510","APOAPSIS":"547.587","TIME_SYSTEM":"UTC","MEAN_ANOMALY":"293.0490","SEMIMAJOR_AXIS":"6925.271","GP_ID":"230021040","REV_AT_EPOCH":"15781","DECAY_DATE":null,"TLE_LINE2":"2 45739  53.0526 279.2185 0000651  67.0567 293.0490 15.06425290157811","OBJECT_ID":"2020-038K"},{"BSTAR":"0.00047991000000","MEAN_ELEMENT_THEORY":"SGP4","CENTER_NAME":"EARTH","COUNTRY_CODE":"US","ELEMENT_SET_NO":"999","RA_OF_ASC_NODE":"322.5351","OBJECT_TYPE":"PAYLOAD","FILE":"3886564","PERIOD":"95.593","MEAN_MOTION_DOT":"0.00006870","INCLINATION":"53.0546","ARG_OF_PERICENTER":"100.1009","EPHEMERIS_TYPE":"0","MEAN_MOTION_DDOT":"0.0000000000000","TLE_LINE1":"1 45740U 20038L   23103.04294335  .00006870  00000-0  47991-3 0  9996","MEAN_MOTION":"15.06378989","RCS_SIZE":"LARGE","PERIAPSIS":"546.554","APOAPSIS":"548.002","ECCENTRICITY":"0.00010460","REF_FRAME":"TEME","TLE_LINE2":"2 45740  53.0546 322.5351 0001046 100.1009 260.0098 15.06378989156179","OBJECT_ID":"2020-038L","DECAY_DATE":null,"GP_ID":"230010741","REV_AT_EPOCH":"15617","SEMIMAJOR_AXIS":"6925.413","MEAN_ANOMALY":"260.0098","TIME_SYSTEM":"UTC","OBJECT_NAME":"STARLINK-1479","NORAD_CAT_ID":"45740","EPOCH":"2023-04-13T01:01:50.305440","CLASSIFICATION_TYPE":"U","SITE":"AFETR","LAUNCH_DATE":"2020-06-13"},{"MEAN_MOTION_DDOT":"0.0000000000000","ARG_OF_PERICENTER":"63.3143","EPHEMERIS_TYPE":"0","TLE_LINE1":"1 45741U 20038M   23103.87597189  .00020706  00000-0  14037-2 0  9999","MEAN_MOTION":"15.06431725","RCS_SIZE":"LARGE","PERIAPSIS":"546.263","BSTAR":"0.00140370000000","MEAN_ELEMENT_THEORY":"SGP4","ELEMENT_SET_NO":"999","RA_OF_ASC_NODE":"318.7961","CENTER_NAME":"EARTH","COUNTRY_CODE":"US","OBJECT_TYPE":"PAYLOAD","FILE":"3886912","MEAN_MOTION_DOT":"0.00020706","INCLINATION":"53.0558","PERIOD":"95.590","OBJECT_NAME":"STARLINK-1480","EPOCH":"2023-04-13T21:01:23.971296","NORAD_CAT_ID":"45741","LAUNCH_DATE":"2020-06-13","SITE":"AFETR","CLASSIFICATION_TYPE":"U","APOAPSIS":"547.970","REF_FRAME":"TEME","ECCENTRICITY":"0.00012320","DECAY_DATE":null,"TLE_LINE2":"2 45741  53.0558 318.7961 0001232  63.3143 296.7972 15.06431725157427","OBJECT_ID":"2020-038M","MEAN_ANOMALY":"296.7972","TIME_SYSTEM":"UTC","REV_AT_EPOCH":"15742","GP_ID":"230025860","SEMIMAJOR_AXIS":"6925.251"}];
